EUTELSAT HOTBIRD 13F    
1 54048U 22134A   26198.27051485  .00000077  00000+0  00000+0 0  9993
2 54048   0.0561 284.8857 0001983  73.6700  46.9263  1.00270720 13677
LDPE-2                  
1 54219U 22144A   26197.58239389  .00000007  00000+0  00000+0 0  9991
2 54219   5.6823  63.4056 0002360 108.6599 202.8194  1.00544717 12132
EUTELSAT HOTBIRD 13G    
1 54225U 22146A   26198.27051485  .00000000  00000+0  00000+0 0  9999
2 54225   0.0170 224.3937 0001996 313.0597 228.0418  1.00270160  7763
ZHONGXING-19            
1 54230U 22148A   26198.22892036  .00000000  00000+0  00000+0 0  9997
2 54230   0.0220  65.8112 0003152  69.1729  45.6713  1.00269925 13686
GALAXY 31 (G-31)        
1 54243U 22153A   26198.17267343  .00000003  00000+0  00000+0 0  9991
2 54243   0.0169  92.1300 0001064  27.4573 116.5480  1.00271807  7435
GALAXY 32 (G-32)        
1 54244U 22153B   26198.24988808 -.00000184  00000+0  00000+0 0  9997
2 54244   0.0104  47.3171 0001377 358.5249 248.1834  1.00272434 13448
EUTELSAT 10B            
1 54259U 22157A   26198.26990817  .00000057  00000+0  00000+0 0  9990
2 54259   0.0604  95.4053 0001550  13.0760 293.7389  1.00266819 13324
GALAXY 35 (G-35)        
1 54741U 22170A   26198.24945475 -.00000172  00000+0  00000+0 0  9998
2 54741   0.0150  81.5982 0001847  34.8105 175.3484  1.00272251 13199
GALAXY 36 (G-36)        
1 54742U 22170B   26198.25032141 -.00000195  00000+0  00000+0 0  9992
2 54742   0.0148 138.1492 0002588 320.6083 197.4244  1.00271883 13072
METEOSAT-12 (MTG-I1)    
1 54743U 22170C   26198.26782817 -.00000019  00000+0  00000+0 0  9991
2 54743   0.7275  20.0995 0003893  81.5150 289.5425  1.00268293 13284
SHIJIAN-23 (SJ-23)      
1 55131U 23002A   26197.75892730 -.00000366  00000+0  00000+0 0  9992
2 55131   3.7915  77.9394 0003420 272.3811 345.4914  1.00076137 12800
APSTAR-6E               
1 55239U 23005A   26197.74930031 -.00000329  00000+0  00000+0 0  9999
2 55239   0.0553 292.4334 0001269 338.8855  66.9853  1.00265554 18985
USA 342                 
1 55263U 23008A   26196.34785685  .00000000  00000+0  00000+0 0  9992
2 55263   0.0068  33.1422 0000237  23.5747  25.6345  1.00268904 12796
LDPE-3A                 
1 55264U 23008B   26198.29348162 -.00000281  00000+0  00000+0 0  9996
2 55264   2.4246  81.2908 0001552  74.9846  13.8030  0.99149386 12110
ELEKTRO-L 4             
1 55506U 23016A   26197.72123859 -.00000069  00000+0  00000+0 0  9999
2 55506   0.1167 278.4001 0001529 256.3747 185.2061  1.00270652 12639
AMAZONAS NEXUS          
1 55508U 23017A   26198.25586810 -.00000292  00000+0  00000+0 0  9999
2 55508   0.0350  44.2577 0004419  43.2349 238.6889  1.00269747  7349
ZHONGXING-26            
1 55686U 23023A   26197.79371900 -.00000364  00000+0  00000+0 0  9993
2 55686   0.0634  71.3638 0003292  31.3837 242.7195  1.00269487 12521
LUCH-5X (OLYMP-K 2)     
1 55841U 23031A   26197.76088387  .00000022  00000+0  00000+0 0  9996
2 55841   0.0283  94.5630 0001121 189.9934 345.9278  1.00273578 12232
GAOFEN-13 02            
1 55912U 23036A   26198.19419888 -.00000228  00000+0  00000+0 0  9991
2 55912   1.0285   4.8500 0003674 337.2502 171.0768  1.00274027 12397
SES-18                  
1 55970U 23038A   26198.24746140 -.00000111  00000+0  00000+0 0  9998
2 55970   0.0473 248.5114 0000776 313.9991  78.5415  1.00270469 12408
SES-19                  
1 55971U 23038B   26197.74223181  .00000077  00000+0  00000+0 0  9998
2 55971   0.0105  23.6874 0001559  89.8174 313.3459  1.00270104 12389
INTELSAT 40E (IS-40E)   
1 56174U 23052A   26198.24988808 -.00000184  00000+0  00000+0 0  9990
2 56174   0.0146  83.5860 0002272  60.1271 150.3153  1.00271699 12125
VIASAT-3 F1             
1 56370U 23060A   26195.82648433  .00000000  00000+0  00000+0 0  9991
2 56370   0.0149  26.8771 0000771  79.6667  34.7004  1.00270317 11713
ARCTURUS                
1 56371U 23060B   26198.09538992 -.00000355  00000+0  00000+0 0  9996
2 56371   2.8487  79.5684 0001100 132.3516 218.5679  1.00593851 11759
GS-1                    
1 56372U 23060C   26197.78661230 -.00000233  00000+0  00000+0 0  9999
2 56372   2.7990  79.4806 0003361 280.4391 307.1481  1.00266298  7832
BEIDOU-3 G4             
1 56564U 23066A   26198.29564830 -.00000290  00000+0  00000+0 0  9996
2 56564   0.4588 339.5854 0004945 185.8011  16.2293  1.00271920 11698
ARABSAT-7B (BADR-8)     
1 56757U 23075A   26198.20179356  .00000134  00000+0  00000+0 0  9992
2 56757   0.0730  29.7092 0003444   1.4078   2.5443  1.00271489 11413
NVS-01 (IRNSS-1J)       
1 56759U 23076A   26198.29356829 -.00000346  00000+0  00000+0 0  9992
2 56759   2.0965 242.9729 0003101  20.4934 266.7429  1.00277571 11411
NUSANTARA TIGA (SATRIA) 
1 57045U 23086A   26198.24906178 -.00000245  00000+0  00000+0 0  9993
2 57045   0.0361  15.0524 0002110 321.0912 194.5760  1.00268131 10063
H2SAT (HEINRICH HERTZ)  
1 57213U 23093A   26198.26808817 -.00000008  00000+0  00000+0 0  9998
2 57213   0.0262 101.4188 0000156 345.7635 305.1023  1.00272815 11213
SYRACUSE 4B             
1 57214U 23093B   26198.19538020 -.00000064  00000+0  00000+0 0  9999
2 57214   0.0182  53.9215 0000216 208.7130  96.2492  1.00272334  7266
